{"id":127,"branch_id":"604","name_th":"พาซิโอ กาญจนาภิเษก","name_en":"Paseo Kanchanapisek","phone_no":"02-111-3938","address":null,"lat":"13.76638","lng":"100.40662","floor":"1"},{"id":7,"branch_id":"007","name_th":"แมคแวลูคลองกุ่ม","name_en":"Max Value Klongkum","phone_no":"02-510-6249","address":null,"lat":"13.8187","lng":"100.654228","floor":"อาคารพานิชย์"},
{"id":4,"branch_id":"003","name_th":"สามยอด","name_en":"Samyod","phone_no":"02-223-0811-3","address":null,"lat":"13.746433","lng":"100.503034","floor":"อาคารพานิชย์"},
{"id":37,"branch_id":"053","name_th":"Central เซ็นทรัลพระราม 3","name_en":"Central Praram 3","phone_no":"02-673-6419","address":null,"lat":"13.697545","lng":"100.537082","floor":"G"},
{"id":33,"branch_id":"046","name_th":"Big C รัตนาธิเบศร์","name_en":"Big C Rattanathibeth","phone_no":"02-921-2618","address":null,"lat":"13.880084","lng":"100.410796","floor":"1"},
{"id":45,"branch_id":"070","name_th":"Central เซ็นทรัลภูเก็ต","name_en":"Central Phuket","phone_no":"076-249-586","address":null,"lat":"7.891346","lng":"98.367803","floor":"2"},{"id":79,"branch_id":"133","name_th":"Robinson สุพรรณบุรี","name_en":"Robinson Supanburi","phone_no":"035-454-247","address":null,"lat":"14.456834","lng":"100.129869","floor":"2"},{"id":128,"branch_id":"155","name_th":"Central เซ็นทรัล นครศรีธรรมราช","name_en":"Central Nakornsritammaraj","phone_no":"075-392-716","address":null,"lat":"8.38172","lng":"99.96962","floor":"2"},{"id":20,"branch_id":"030","name_th":"Big C ราษฎร์บูรณะ","name_en":"Big C Rajburana ","phone_no":"02-873-1291","address":null,"lat":"13.683551","lng":"100.500253","floor":"2"},{"id":12,"branch_id":"019","name_th":"อิมพีเรียลสำโรง","name_en":"Imperial Samrong","phone_no":"02-394-1087","address":null,"lat":"13.65108","lng":"100.595927","floor":"1"},{"id":29,"branch_id":"040","name_th":"Big C อุดรธานี","name_en":"Big C Udonthani","phone_no":"042-321-034","address":null,"lat":"17.386784","lng":"102.824365","floor":"1"},{"id":39,"branch_id":"056","name_th":"Big C ลำปาง","name_en":"Big C Lampang","phone_no":"054-352-645","address":null,"lat":"18.276216","lng":"99.48148","floor":"2"},{"id":31,"branch_id":"042","name_th":"Big C นครราชสีมา(โคราช)","name_en":"Big C Nakornratchasima (Korat)","phone_no":"044-295-004","address":null,"lat":"14.98212","lng":"102.092375","floor":"1"},{"id":35,"branch_id":"048","name_th":"Big C ระยอง","name_en":"Big C Rayong","phone_no":"086-831-1087","address":null,"lat":"12.699778","lng":"101.267847","floor":"1"},{"id":104,"branch_id":"909","name_th":"Big C สุขาภิบาล 3","name_en":"Big C Sukapibarn 3","phone_no":"02-916-3522","address":null,"lat":"13.808433","lng":"100.726763","floor":"1"},{"id":30,"branch_id":"041","name_th":"Big C ขอนแก่น","name_en":"Big C Khon Kaen ","phone_no":"043-325-470","address":null,"lat":"16.600198","lng":"102.819291","floor":"2"},{"id":66,"branch_id":"118","name_th":"Central เซ็นทรัลขอนแก่น","name_en":"Central Khon Kaen ","phone_no":"043-001-405","address":null,"lat":"16.449744","lng":"102.810553","floor":"1"},{"id":64,"branch_id":"116","name_th":"Central เซ็นทรัลพัทยา บีช","name_en":"Central Pattaya Beach ","phone_no":"033-003-589","address":null,"lat":"12.934927","lng":"100.882852","floor":"3"},{"id":26,"branch_id":"037","name_th":"Big C บางพลี","name_en":"Big C Bangplea","phone_no":"02-750-6588","address":null,"lat":"13.604451","lng":"100.708435","floor":"2"},{"id":62,"branch_id":"114","name_th":"Central เซ็นทรัลแจ้งวัฒนะ","name_en":"Central Chengwattana","phone_no":"02-101-0645","address":null,"lat":"13.904055","lng":"100.528572","floor":"2"},{"id":22,"branch_id":"032","name_th":"Central เซ็นทรัลปิ่นเกล้า","name_en":"Central Pinklao","phone_no":"02-884-8269","address":null,"lat":"13.778047","lng":"100.47681","floor":"3"},{"id":34,"branch_id":"047","name_th":"Lotus วังหิน","name_en":"Lotus Wanghin","phone_no":"02-570-8561","address":null,"lat":"13.824287","lng":"100.591633","floor":"อาคารพานิชย์"},{"id":32,"branch_id":"045","name_th":"Big C พิษณุโลก","name_en":"Big C Pitsanulok","phone_no":"055-221-173","address":null,"lat":"16.815731","lng":"100.29015","floor":"1"},{"id":38,"branch_id":"055","name_th":"Big C เชียงราย","name_en":"Big C ChiangRai","phone_no":"053-746-487","address":null,"lat":"19.888809","lng":"99.837763","floor":"2"},{"id":16,"branch_id":"026","name_th":"The Mall มอลล์บางแค","name_en":"The Mall Bangkae","phone_no":"02-454-9439","address":null,"lat":"13.713759","lng":"100.407733","floor":"1"},{"id":100,"branch_id":"905","name_th":"Big C ดอนเมือง","name_en":"Big C DonMueang","phone_no":"02-973-7178","address":null,"lat":"13.891203","lng":"100.606551","floor":"1"},{"id":46,"branch_id":"072","name_th":"Big C ติวานนท์","name_en":"Big C Tiwanon","phone_no":"02-968-6260","address":null,"lat":"13.845359","lng":"100.510695","floor":"1"},{"id":97,"branch_id":"902","name_th":"Big C หาดใหญ่","name_en":"Big C Hatyai","phone_no":"074-427-739","address":null,"lat":"7.038569","lng":"100.468139","floor":"1"},{"id":99,"branch_id":"904","name_th":"Big C อุบลราชธานี","name_en":"Big C Ubonratchathani","phone_no":"045-284-544","address":null,"lat":"15.165905","lng":"104.854857","floor":"1"},{"id":10,"branch_id":"013","name_th":"The Mall มอลล์ 3 (รามคำแหง)","name_en":"The Mall Ramkamhaeng (Mall3)","phone_no":"02-310-1009","address":null,"lat":"13.752443","lng":"100.609773","floor":"1"},{"id":83,"branch_id":"137","name_th":"Seacon Square (ซีคอนสแควร์ บางแค)","name_en":"Seacon Bangkae","phone_no":"02-458-2919","address":null,"lat":"13.711818","lng":"100.434646","floor":"2"},{"id":48,"branch_id":"075","name_th":"Central เซ็นทรัลลาดพร้าว","name_en":"Central Ladprao","phone_no":"02-541-1186","address":null,"lat":"13.81659","lng":"100.560997","floor":"3"},{"id":49,"branch_id":"078","name_th":"Big C พัทยา ","name_en":"Big C Pattaya","phone_no":"038-374-839","address":null,"lat":"12.9153","lng":"100.8947","floor":"1"},{"id":23,"branch_id":"034","name_th":"แฟชั่นไอส์แลนด์","name_en":"Fashion Island ","phone_no":"02-947-6166","address":null,"lat":"13.825172","lng":"100.678043","floor":"2"},{"id":86,"branch_id":"140","name_th":"Central ลำปาง","name_en":"Central Lampang","phone_no":"054-010-745","address":null,"lat":"18.281774","lng":"99.494149","floor":"3"},{"id":59,"branch_id":"106","name_th":"All seasons (ออล ซีซั่น)","name_en":"All Season","phone_no":"02-655-8336","address":null,"lat":"13.739052","lng":"100.548077","floor":"2"},{"id":87,"branch_id":"141","name_th":"Robinson กาญจนบุรี","name_en":"Robinson Kanchanaburi ","phone_no":"034-603-375","address":null,"lat":"14.02245","lng":"99.554667","floor":"2"},{"id":8,"branch_id":"008","name_th":"Big C วงศ์สว่าง","name_en":"Big C Wongsawang","phone_no":"02-913-9777","address":null,"lat":"13.826759","lng":"100.52858","floor":"1"},{"id":17,"branch_id":"027","name_th":"Central เซ็นทรัลบางนา","name_en":"Central Bangna","phone_no":"02-361-0740","address":null,"lat":"13.668829","lng":"100.63424","floor":"3"},{"id":14,"branch_id":"021","name_th":"The Mall มอลล์ 6 (งามวงศ์วาน)","name_en":"The Mall Ngamwongwarn (Mall6)","phone_no":"02-550-0694","address":null,"lat":"13.855075","lng":"100.5418","floor":"1"},{"id":21,"branch_id":"031","name_th":"พหลโยธินเพลส","name_en":"Phaholyothin Place","phone_no":"02-619-1026","address":null,"lat":"13.783101","lng":"100.546537","floor":"1"},{"id":15,"branch_id":"025","name_th":"Central เซ็นทรัลรามอินทรา","name_en":"Central Ramindra","phone_no":"02-552-5329","address":null,"lat":"13.872015","lng":"100.601705","floor":"2"},{"id":25,"branch_id":"036","name_th":"รัชโยธิน (SCB Park)","name_en":"Ratchayotin (SCB Park)","phone_no":"02-937-5467","address":null,"lat":"13.827053","lng":"100.564867","floor":"G"},{"id":119,"branch_id":"153","name_th":"Central Westgate บางใหญ่","name_en":"Central Westgate Bangyai ","phone_no":"02-102-7811","address":null,"lat":"13.87695","lng":"100.41147","floor":"2"},{"id":92,"branch_id":"149","name_th":"Central ศาลายา","name_en":"Central Salaya ","phone_no":"034-100-789","address":null,"lat":"13.785315","lng":"100.288117","floor":"3"},{"id":102,"branch_id":"907","name_th":"Big C อ้อมใหญ่","name_en":"Big C Aomyai","phone_no":"02-420-8947","address":null,"lat":"13.706726","lng":"100.280542","floor":"2"},{"id":96,"branch_id":"901","name_th":"Big C พระราม 2","name_en":"Big C Praram 2","phone_no":"02-895-7732","address":null,"lat":"13.662045","lng":"100.440515","floor":"1"},{"id":42,"branch_id":"061","name_th":"The Mall มอลล์โคราช","name_en":"The Mall Korat","phone_no":"044-288-159","address":null,"lat":"14.980695","lng":"102.076528","floor":"2"},{"id":90,"branch_id":"145","name_th":"Central เฟสติวัลเชียงใหม่","name_en":"Central Festival Chiangmai ","phone_no":"052-001-341","address":null,"lat":"18.808295","lng":"99.019057","floor":"3"},{"id":54,"branch_id":"089","name_th":"พารากอน","name_en":"Siam Paragon","phone_no":"02-610-9645-6","address":null,"lat":"13.747347","lng":"100.545041","floor":"2"},{"id":60,"branch_id":"108","name_th":"Big C ลำพูน","name_en":"Big C Lampoon","phone_no":"053-575-528","address":null,"lat":"18.59122","lng":"99.041386","floor":"2"},{"id":91,"branch_id":"146","name_th":"Robinson สระบุรี","name_en":"Robinson Saraburi","phone_no":"036-351-507","address":null,"lat":"14.539752","lng":"100.951151","floor":"2"},{"id":61,"branch_id":"111","name_th":"Big C บุรีรัมย์","name_en":"Big C Burirum","phone_no":"044-110-169","address":null,"lat":"14.978036","lng":"103.074669","floor":"1"},{"id":68,"branch_id":"121","name_th":"ศิริราช (รพ.ศิริราช)","name_en":"Siriraj Hospital","phone_no":"02-444-7750","address":null,"lat":"13.756825","lng":"100.485372","floor":"5"},{"id":43,"branch_id":"067","name_th":"Big C แฟชั่นไอส์แลนด์","name_en":"Big C Fashion Island","phone_no":"02-947-6414","address":null,"lat":"13.830225","lng":"100.672746","floor":"2"},{"id":40,"branch_id":"058","name_th":"Big C ลพบุรี","name_en":"Big C Lopburi","phone_no":"036-615-847","address":null,"lat":"14.794543","lng":"100.67229","floor":"2"},{"id":27,"branch_id":"038","name_th":"Big C นครปฐม","name_en":"Big C Nakornpathom","phone_no":"034-213-106","address":null,"lat":"13.812863","lng":"100.072322","floor":"1"},{"id":57,"branch_id":"093","name_th":"Central เซ็นทรัลเวิลด์","name_en":"CentralWorld","phone_no":"02-251-3162","address":null,"lat":"13.746558","lng":"100.540338","floor":"1"},{"id":47,"branch_id":"073","name_th":"Central เซ็นทรัลพระราม 2","name_en":"Central Praram 2","phone_no":"02-872-4158","address":null,"lat":"13.662738","lng":"100.438063","floor":"2"},{"id":5,"branch_id":"004","name_th":"Big C นครสวรรค์","name_en":"Big C Nakornsawan","phone_no":"056-331-975","address":null,"lat":"15.695653","lng":"100.122201","floor":"2"},{"id":74,"branch_id":"127","name_th":"Lotus พัทยา","name_en":"Lotus Pattaya ","phone_no":"038-300-837","address":null,"lat":"12.906415","lng":"100.894599","floor":"1"},{"id":75,"branch_id":"128","name_th":"Lotus สระบุรี","name_en":"Lotus Saraburi ","phone_no":"036-315-874","address":null,"lat":"14.522623","lng":"100.92214","floor":"1"},{"id":77,"branch_id":"131","name_th":"Big C บางนา","name_en":"Big C Bangna","phone_no":"02-744-3478","address":null,"lat":"13.668615","lng":"100.635916","floor":"2"},{"id":80,"branch_id":"134","name_th":"บางกอกพล่าซ่า (รพ.กรุงเทพ)","name_en":"Bangkok Hospital","phone_no":"02-318-4468","address":null,"lat":"13.748564","lng":"100.583782","floor":"4"},{"id":81,"branch_id":"135","name_th":"Central เซ็นทรัลอุดรธานี","name_en":"Central Udonthani","phone_no":"042-921-297","address":null,"lat":"17.075129","lng":"102.83607","floor":"3"},{"id":93,"branch_id":"150","name_th":"Market Village สุวรรณภูมิ","name_en":"Market Village Suvarnabhumi","phone_no":"02-002-3029","address":null,"lat":"13.63256","lng":"100.7117","floor":"1"},{"id":98,"branch_id":"903","name_th":"Big C สมุทรปราการ","name_en":"Big C Samutprakarn","phone_no":"02-388-2647","address":null,"lat":"13.584768","lng":"100.606667","floor":"2"},{"id":82,"branch_id":"136","name_th":"Gate Way (เกตเวย์ เอกมัย)","name_en":"Gateway Ekamai","phone_no":"02-187-4117","address":null,"lat":"13.718908","lng":"100.585542","floor":"3"},{"id":111,"branch_id":"917","name_th":"The Walk (เดอะวอล์ค เกษตร-นวมินทร์)","name_en":"The Walk Kaset-Navamin","phone_no":"02-553-2161","address":null,"lat":"13.828845","lng":"100.626094","floor":"B"},{"id":109,"branch_id":"914","name_th":"ปิยรมย์ ปาร์ค","name_en":"Piyarom Park","phone_no":"02-741-8927","address":null,"lat":"13.686387","lng":"100.610889","floor":"อาคารพานิชย์"},{"id":13,"branch_id":"020","name_th":"Big C รังสิต","name_en":"Big C Rangsit ","phone_no":"02-958-0183","address":null,"lat":"13.989448","lng":"100.617975","floor":"1"},{"id":105,"branch_id":"910","name_th":"อเวนิวแจ้งวัฒนะ","name_en":"The Avenue Chaengwattana","phone_no":"02-574-3596","address":null,"lat":"13.894812","lng":"100.558229","floor":"1"},{"id":53,"branch_id":"087","name_th":"Big C เอกมัย","name_en":"Big C Ekamai","phone_no":"02-714-8262","address":null,"lat":"13.727397","lng":"100.585365","floor":"2"},{"id":69,"branch_id":"122","name_th":"Central พิษณุโลก","name_en":"Central Phitsanulok","phone_no":"055-000-822","address":null,"lat":"16.840569","lng":"100.233562","floor":"1"},{"id":55,"branch_id":"090","name_th":"Big C สกลนคร","name_en":"Big C Sakonakorn","phone_no":"042-731-367","address":null,"lat":"17.159541","lng":"104.149516","floor":"1"},{"id":76,"branch_id":"130","name_th":"Lotus พิษณุโลก","name_en":"Lotus Pitsanulok","phone_no":"055-221-054","address":null,"lat":"16.81778","lng":"100.300927","floor":"1"},{"id":56,"branch_id":"091","name_th":"พาราไดร์ ปาร์ค","name_en":"Paradise Park ","phone_no":"02-787-1342","address":null,"lat":"13.688292","lng":"100.648067","floor":"G"},{"id":58,"branch_id":"101","name_th":"Esplanade (เอสพลานาด)","name_en":"Esplanade","phone_no":"02-660-9181","address":null,"lat":"13.766334","lng":"100.569904","floor":"M"},{"id":24,"branch_id":"035","name_th":"อิมพีเรียลลาดพร้าว","name_en":"Imperial Ladprao","phone_no":"02-934-9170","address":null,"lat":"13.785419","lng":"100.612047","floor":"2"},{"id":108,"branch_id":"913","name_th":"ตรีเพชร(ดิโอสยาม)","name_en":"Tripetch ","phone_no":"02-222-6957","address":null,"lat":"13.745737","lng":"100.499901","floor":"3"},{"id":101,"branch_id":"906","name_th":"Big C สะพานควาย","name_en":"Big C Sapankwai","phone_no":"02-616-7027","address":null,"lat":"13.791512","lng":"100.549437","floor":"2"},{"id":6,"branch_id":"006","name_th":"สีลม ซ. 1 (BTS ศาลาแดง)","name_en":"Silom 1 (BTS Saladeang)","phone_no":"02-235-0907","address":null,"lat":"13.728476","lng":"100.536003","floor":"อาคารพานิชย์"},{"id":73,"branch_id":"126","name_th":"Lotus ซีคอนสแควร์","name_en":"Lotus Seacon square","phone_no":"02-721-9176","address":null,"lat":"13.692195","lng":"100.649003","floor":"2"},{"id":63,"branch_id":"115","name_th":"Big C สุราษฎร์ธานี","name_en":"Big C Suratthani","phone_no":"077-224-351","address":null,"lat":"9.148518","lng":"99.370375","floor":"1"},{"id":52,"branch_id":"084","name_th":"Central เซ็นทรัลรัตนาธิเบศร์","name_en":"Central Rattanathibeth","phone_no":"02-526-6488","address":null,"lat":"13.865466","lng":"100.497608","floor":"1"},{"id":78,"branch_id":"132","name_th":"The Walk (เดอะวอล์ค ราชพฤกษ์)","name_en":"The Walk Rajchapreuk","phone_no":"02-489-6962","address":null,"lat":"13.821565","lng":"100.449803","floor":"2"},{"id":103,"branch_id":"908","name_th":"Big C เพชรเกษม","name_en":"Big C Phetkasem","phone_no":"02-444-1914","address":null,"lat":"13.707659","lng":"100.381055","floor":"1"},{"id":106,"branch_id":"911","name_th":"Big C ลำลูกกา","name_en":"Big C Lam Lukka","phone_no":"02-152-7179","address":null,"lat":"13.9349","lng":"100.714414","floor":"1"},{"id":95,"branch_id":"152","name_th":"รพ.เมตตาประชารักษ์ (วัดไร่ขิง)","name_en":"Metapracharak Hospital","phone_no":"034-966-582","address":null,"lat":"13.73964","lng":"100.25609","floor":"ชั้น 1 ข้างๆศาลาหลวงพ่อ"},{"id":70,"branch_id":"123","name_th":"Central เซ็นทรัลพระราม 9","name_en":"Central Praram 9","phone_no":"02-160-3861","address":null,"lat":"13.831165","lng":"100.547134","floor":"3"},{"id":3,"branch_id":"002","name_th":"สีลม 2 ซอย 13 (วัดแขก)","name_en":"Silom 13","phone_no":"02-234-4565","address":null,"lat":"13.724622","lng":"100.523765","floor":"อาคารพานิชย์"},{"id":107,"branch_id":"912","name_th":"Big C หัวหมาก","name_en":"Big C Huamark","phone_no":"02-718-7420","address":null,"lat":"13.755695","lng":"100.612946","floor":"2"},{"id":18,"branch_id":"028","name_th":"Big C แจ้งวัฒนะ","name_en":"Big C Chengwattana","phone_no":"02-573-5862","address":null,"lat":"13.894369","lng":"100.560243","floor":"1"},{"id":71,"branch_id":"124","name_th":"Lotus มหาชัย","name_en":"Lotus Mahachai","phone_no":"034-827-135","address":null,"lat":"13.577092","lng":"100.273086","floor":"1"},{"id":125,"branch_id":"918","name_th":"Central เซ็นทรัลอีสต์วิลล์","name_en":"Central EastVille","phone_no":"02-553-6199","address":null,"lat":"13.8035","lng":"100.6143","floor":"3"},{"id":11,"branch_id":"014","name_th":"The Mall ท่าพระ","name_en":"The Mall Thapra ","phone_no":"02-477-9300","address":null,"lat":"13.71237","lng":"100.479648","floor":"1"},{"id":9,"branch_id":"009","name_th":"แมคแวลูนครินทร์","name_en":"Max Value Nakarin","phone_no":"02-722-2411","address":null,"lat":"13.736191","lng":"100.641836","floor":"อาคารพานิชย์"},{"id":67,"branch_id":"119","name_th":"Central เซ็นทรัลเชียงราย","name_en":"Central Chiangrai","phone_no":"052-020-824","address":null,"lat":"19.88651","lng":"99.833182","floor":"1"},{"id":51,"branch_id":"082","name_th":"Big C สุรินทร์","name_en":"Big C Surin ","phone_no":"044-535-090","address":null,"lat":"14.872787","lng":"103.509866","floor":"1"},{"id":94,"branch_id":"151","name_th":"Central ระยอง","name_en":"Central Rayong ","phone_no":"033-013-215","address":null,"lat":"12.69617","lng":"101.26851","floor":"2"},{"id":36,"branch_id":"050","name_th":"Emquartier / The Emporium (เอ็มโพเรี่ยม)","name_en":"Emquartier","phone_no":"02-003-6149","address":null,"lat":"13.729807","lng":"100.569347","floor":"3"},{"id":19,"branch_id":"029","name_th":"The Mall มอลล์บางกะปิ","name_en":"The Mall Bangkapi","phone_no":"02-734-1758","address":null,"lat":"13.765876","lng":"100.660074","floor":"1"},{"id":88,"branch_id":"142","name_th":"Central เซ็นทรัลอุบลราชธานี","name_en":"Central Ubonratchathani","phone_no":"045-422-485","address":null,"lat":"15.239351","lng":"104.823184","floor":"3"},{"id":50,"branch_id":"079","name_th":"Central เซ็นทรัลแอร์พอร์ตเชียงใหม่","name_en":"Central Airport ChiangMai","phone_no":"053-203-880","address":null,"lat":"18.769502","lng":"98.975968","floor":"G"},{"id":41,"branch_id":"060","name_th":"Big C เพชรบุรี","name_en":"Big C Petchaburi","phone_no":"032-454-538","address":null,"lat":"13.079039","lng":"99.948214","floor":"1"},{"id":65,"branch_id":"117","name_th":"Central เซ็นทรัลชลบุรี","name_en":"Central Chonburi ","phone_no":"033-003-250","address":null,"lat":"13.336888","lng":"100.969522","floor":"1"},{"id":110,"branch_id":"915","name_th":"แหลมทองพล่าซ่า (ระยอง)","name_en":"Laemthong Shopping Plaza Rayong","phone_no":"038-611-550","address":null,"lat":"12.683953","lng":"101.249474","floor":"2"},{"id":132,"branch_id":"157","name_th":"พาซิโอ รามคำแหง","name_en":"Paseo Ramkamhang","phone_no":"02-111-3115","address":null,"lat":"13.776247","lng":"100.673717","floor":"1"},{"id":85,"branch_id":"139","name_th":"Central สุราษฎร์ธานี","name_en":"Central Suratthani","phone_no":"077-489-727","address":null,"lat":"9.111107","lng":"99.301386","floor":"2"}